start=new Date('2022-07-25T00:00:00.000Z').valueOf();
sats=[{"REV_AT_EPOCH":"7831","SITE":"AFETR","OBJECT_TYPE":"PAYLOAD","CENTER_NAME":"EARTH","MEAN_ELEMENT_THEORY":"SGP4","MEAN_MOTION_DDOT":"0.0000000000000","FILE":"3521124","TIME_SYSTEM":"UTC","INCLINATION":"53.0559","MEAN_MOTION":"15.06400150","TLE_LINE2":"2 47752  53.0559  29.6499 0001524  78.9490 281.1671 15.06400150 78319","PERIOD":"95.592","PERIAPSIS":"546.158","SEMIMAJOR_AXIS":"6925.348","TLE_LINE1":"1 47752U 21017AG  22205.83165358  .00001075  00000-0  91084-4 0  9995","GP_ID":"208799342","BSTAR":"0.00009108400000","LAUNCH_DATE":"2021-03-04","EPOCH":"2022-07-24T19:57:34.869312","OBJECT_ID":"2021-017AG","ELEMENT_SET_NO":"999","CLASSIFICATION_TYPE":"U","RA_OF_ASC_NODE":"29.6499","EPHEMERIS_TYPE":"0","DECAY_DATE":null,"ARG_OF_PERICENTER":"78.9490","RCS_SIZE":"MEDIUM","REF_FRAME":"TEME","MEAN_MOTION_DOT":"0.00001075","MEAN_ANOMALY":"281.1671","COUNTRY_CODE":"US","APOAPSIS":"548.269","OBJECT_NAME":"STARLINK-2169","NORAD_CAT_ID":"47752","ECCENTRICITY":"0.00015240"},{"ECCENTRICITY":"0.00015650","NORAD_CAT_ID":"47753","COUNTRY_CODE":"US","APOAPSIS":"548.307","OBJECT_NAME":"STARLINK-2170","DECAY_DATE":null,"ARG_OF_PERICENTER":"75.3534","REF_FRAME":"TEME","RCS_SIZE":"LARGE","MEAN_ANOMALY":"284.7628","MEAN_MOTION_DOT":"-0.00002334","OBJECT_ID":"2021-017AH","CLASSIFICATION_TYPE":"U","ELEMENT_SET_NO":"999","RA_OF_ASC_NODE":"34.7645","EPHEMERIS_TYPE":"0","SEMIMAJOR_AXIS":"6925.358","TLE_LINE1":"1 47753U 21017AH  22205.80724555 -.00002334  00000-0 -13785-3 0  9995","GP_ID":"208797598","LAUNCH_DATE":"2021-03-04","BSTAR":"-0.00013785000000","EPOCH":"2022-07-24T19:22:26.015520","INCLINATION":"53.0551","MEAN_MOTION":"15.06396841","PERIOD":"95.592","TLE_LINE2":"2 47753  53.0551  34.7645 0001565  75.3534 284.7628 15.06396841 78230","PERIAPSIS":"546.139","MEAN_MOTION_DDOT":"0.0000000000000","FILE":"3521124","TIME_SYSTEM":"UTC","REV_AT_EPOCH":"7823","SITE":"AFETR","OBJECT_TYPE":"PAYLOAD","CENTER_NAME":"EARTH","MEAN_ELEMENT_THEORY":"SGP4"},{"MEAN_ANOMALY":"283.9190","MEAN_MOTION_DOT":"0.00006680","REF_FRAME":"TEME","RCS_SIZE":"LARGE","ARG_OF_PERICENTER":"76.1961","DECAY_DATE":null,"EPHEMERIS_TYPE":"0","RA_OF_ASC_NODE":"34.6079","CLASSIFICATION_TYPE":"U","ELEMENT_SET_NO":"999","OBJECT_ID":"2021-017AJ","ECCENTRICITY":"0.00014570","NORAD_CAT_ID":"47754","OBJECT_NAME":"STARLINK-2171","APOAPSIS":"548.195","COUNTRY_CODE":"US","TIME_SYSTEM":"UTC","FILE":"3521124","MEAN_MOTION_DDOT":"0.0000000000000","MEAN_ELEMENT_THEORY":"SGP4","OBJECT_TYPE":"PAYLOAD","CENTER_NAME":"EARTH","SITE":"AFETR","REV_AT_EPOCH":"7820","EPOCH":"2022-07-24T20:15:30.764448","LAUNCH_DATE":"2021-03-04","BSTAR":"0.00046683000000","GP_ID":"208797848","TLE_LINE1":"1 47754U 21017AJ  22205.84410607  .00006680  00000-0  46683-3 0  9999","SEMIMAJOR_AXIS":"6925.321","PERIAPSIS":"546.177","PERIOD":"95.592","TLE_LINE2":"2 47754  53.0551  34.6079 0001457  76.1961 283.9190 15.06408840 78209","INCLINATION":"53.0551","MEAN_MOTION":"15.06408840"},{"MEAN_ELEMENT_THEORY":"SGP4","OBJECT_TYPE":"PAYLOAD","CENTER_NAME":"EARTH","SITE":"AFETR","REV_AT_EPOCH":"7824","TIME_SYSTEM":"UTC","FILE":"3521124","MEAN_MOTION_DDOT":"0.0000000000000","PERIAPSIS":"546.126","TLE_LINE2":"2 47756  53.0554  34.6179 0001586  74.1925 285.9239 15.06396581 78244","PERIOD":"95.592","MEAN_MOTION":"15.06396581","INCLINATION":"53.0554","EPOCH":"2022-07-24T20:10:12.491040","BSTAR":"-0.00003595900000","LAUNCH_DATE":"2021-03-04","GP_ID":"208799099","TLE_LINE1":"1 47756U 21017AL  22205.84042235 -.00000817  00000-0 -35959-4 0  9992","SEMIMAJOR_AXIS":"6925.359","EPHEMERIS_TYPE":"0","RA_OF_ASC_NODE":"34.6179","ELEMENT_SET_NO":"999","CLASSIFICATION_TYPE":"U","OBJECT_ID":"2021-017AL","MEAN_MOTION_DOT":"-0.00000817","MEAN_ANOMALY":"285.9239","RCS_SIZE":"LARGE","REF_FRAME":"TEME","ARG_OF_PERICENTER":"74.1925","DECAY_DATE":null,"OBJECT_NAME":"STARLINK-2174","APOAPSIS":"548.322","COUNTRY_CODE":"US","NORAD_CAT_ID":"47756","ECCENTRICITY":"0.00015860"},{"PERIAPSIS":"546.119","TLE_LINE2":"2 47757  53.0539  34.6785 0001593  69.5126 290.6034 15.06397264 78188","PERIOD":"95.592","INCLINATION":"53.0539","MEAN_MOTION":"15.06397264","EPOCH":"2022-07-24T19:48:58.593024","BSTAR":"-0.00009251700000","LAUNCH_DATE":"2021-03-04","GP_ID":"208798843","TLE_LINE1":"1 47757U 21017AM  22205.82567816 -.00001659  00000-0 -92517-4 0  9996","SEMIMAJOR_AXIS":"6925.357","MEAN_ELEMENT_THEORY":"SGP4","CENTER_NAME":"EARTH","OBJECT_TYPE":"PAYLOAD","SITE":"AFETR","REV_AT_EPOCH":"7818","TIME_SYSTEM":"UTC","FILE":"3521124","MEAN_MOTION_DDOT":"0.0000000000000","OBJECT_NAME":"STARLINK-2175","APOAPSIS":"548.325","COUNTRY_CODE":"US","NORAD_CAT_ID":"47757","ECCENTRICITY":"0.00015930","EPHEMERIS_TYPE":"0","RA_OF_ASC_NODE":"34.6785","ELEMENT_SET_NO":"999","CLASSIFICATION_TYPE":"U","OBJECT_ID":"2021-017AM","MEAN_MOTION_DOT":"-0.00001659","MEAN_ANOMALY":"290.6034","RCS_SIZE":"LARGE","REF_FRAME":"TEME","ARG_OF_PERICENTER":"69.5126","DECAY_DATE":null},{"OBJECT_NAME":"STARLINK-2178","APOAPSIS":"548.343","COUNTRY_CODE":"US","ECCENTRICITY":"0.00015970","NORAD_CAT_ID":"47760","EPHEMERIS_TYPE":"0","RA_OF_ASC_NODE":"44.5420","CLASSIFICATION_TYPE":"U","ELEMENT_SET_NO":"999","OBJECT_ID":"2021-017AQ","MEAN_ANOMALY":"288.7178","MEAN_MOTION_DOT":"-0.00000128","REF_FRAME":"TEME","RCS_SIZE":"LARGE","ARG_OF_PERICENTER":"71.3985","DECAY_DATE":null,"PERIAPSIS":"546.131","PERIOD":"95.593","TLE_LINE2":"2 47760  53.0564  44.5420 0001597  71.3985 288.7178 15.06392408 78085","INCLINATION":"53.0564","MEAN_MOTION":"15.06392408","EPOCH":"2022-07-24T20:35:25.035360","LAUNCH_DATE":"2021-03-04","BSTAR":"0.00001033100000","GP_ID":"208798098","SEMIMAJOR_AXIS":"6925.372","TLE_LINE1":"1 47760U 21017AQ  22205.85792865 -.00000128  00000-0  10331-4 0  9990","MEAN_ELEMENT_THEORY":"SGP4","CENTER_NAME":"EARTH","OBJECT_TYPE":"PAYLOAD","SITE":"AFETR","REV_AT_EPOCH":"7808","TIME_SYSTEM":"UTC","FILE":"3521124","MEAN_MOTION_DDOT":"0.0000000000000"},{"PERIAPSIS":"546.178","INCLINATION":"53.0562","MEAN_MOTION":"15.06404259","TLE_LINE2":"2 47761  53.0562  34.6980 0001477  87.9643 272.1515 15.06404259 78198","PERIOD":"95.592","BSTAR":"0.00005453400000","LAUNCH_DATE":"2021-03-04","EPOCH":"2022-07-24T19:43:38.990784","SEMIMAJOR_AXIS":"6925.336","TLE_LINE1":"1 47761U 21017AR  22205.82197906  .00000531  00000-0  54534-4 0  9993","GP_ID":"208798348","OBJECT_TYPE":"PAYLOAD","CENTER_NAME":"EARTH","MEAN_ELEMENT_THEORY":"SGP4","REV_AT_EPOCH":"7819","SITE":"AFETR","TIME_SYSTEM":"UTC","MEAN_MOTION_DDOT":"0.0000000000000","FILE":"3521124","OBJECT_NAME":"STARLINK-2179","COUNTRY_CODE":"US","APOAPSIS":"548.223","NORAD_CAT_ID":"47761","ECCENTRICITY":"0.00014770","RA_OF_ASC_NODE":"34.6980","EPHEMERIS_TYPE":"0","OBJECT_ID":"2021-017AR","ELEMENT_SET_NO":"999","CLASSIFICATION_TYPE":"U","RCS_SIZE":"LARGE","REF_FRAME":"TEME","MEAN_MOTION_DOT":"0.00000531","MEAN_ANOMALY":"272.1515","DECAY_DATE":null,"ARG_OF_PERICENTER":"87.9643"},{"NORAD_CAT_ID":"47762","ECCENTRICITY":"0.00017050","OBJECT_NAME":"STARLINK-2180","APOAPSIS":"548.362","COUNTRY_CODE":"US","MEAN_MOTION_DOT":"0.00001475","MEAN_ANOMALY":"310.3314","RCS_SIZE":"LARGE","REF_FRAME":"TEME","ARG_OF_PERICENTER":"49.7824","DECAY_DATE":null,"EPHEMERIS_TYPE":"0","RA_OF_ASC_NODE":"49.5945","ELEMENT_SET_NO":"999","CLASSIFICATION_TYPE":"U","OBJECT_ID":"2021-017AS","EPOCH":"2022-07-24T20:21:28.921824","BSTAR":"0.00011784000000","LAUNCH_DATE":"2021-03-04","GP_ID":"208798600","SEMIMAJOR_AXIS":"6925.316","TLE_LINE1":"1 47762U 21017AS  22205.84825141  .00001475  00000-0  11784-3 0  9992","PERIAPSIS":"546.001","TLE_LINE2":"2 47762  53.0557  49.5945 0001705  49.7824 310.3314 15.06410463 78006","PERIOD":"95.591","INCLINATION":"53.0557","MEAN_MOTION":"15.06410463","TIME_SYSTEM":"UTC","FILE":"3521124","MEAN_MOTION_DDOT":"0.0000000000000","MEAN_ELEMENT_THEORY":"SGP4","CENTER_NAME":"EARTH","OBJECT_TYPE":"PAYLOAD","SITE":"AFETR","REV_AT_EPOCH":"7800"},{"TLE_LINE1":"1 47763U 21017AT  22205.79757062  .00002961  00000-0  21756-3 0  9994","SEMIMAJOR_AXIS":"6925.323","GP_ID":"208799343","LAUNCH_DATE":"2021-03-04","BSTAR":"0.00021756000000","EPOCH":"2022-07-24T19:08:30.101568","INCLINATION":"53.0550","MEAN_MOTION":"15.06408238","PERIOD":"95.592","TLE_LINE2":"2 47763  53.0550  39.8151 0001305  78.3474 281.7662 15.06408238 78112","PERIAPSIS":"546.285","MEAN_MOTION_DDOT":"0.0000000000000","FILE":"3521124","TIME_SYSTEM":"UTC","REV_AT_EPOCH":"7811","SITE":"AFETR","CENTER_NAME":"EARTH","OBJECT_TYPE":"PAYLOAD","MEAN_ELEMENT_THEORY":"SGP4","ECCENTRICITY":"0.00013050","NORAD_CAT_ID":"47763","COUNTRY_CODE":"US","APOAPSIS":"548.092","OBJECT_NAME":"STARLINK-2181","DECAY_DATE":null,"ARG_OF_PERICENTER":"78.3474","REF_FRAME":"TEME","RCS_SIZE":"LARGE","MEAN_ANOMALY":"281.7662","MEAN_MOTION_DOT":"0.00002961","OBJECT_ID":"2021-017AT","CLASSIFICATION_TYPE":"U","ELEMENT_SET_NO":"999","RA_OF_ASC_NODE":"39.8151","EPHEMERIS_TYPE":"0"},{"GP_ID":"208797599","SEMIMAJOR_AXIS":"6925.322","TLE_LINE1":"1 47764U 21017AU  22205.83349090  .00000019  00000-0  20191-4 0  9993","EPOCH":"2022-07-24T20:00:13.613760","BSTAR":"0.00002019100000","LAUNCH_DATE":"2021-03-04","TLE_LINE2":"2 47764  53.0565  49.6501 0001634  76.7454 283.3717 15.06408647 78036","PERIOD":"95.592","INCLINATION":"53.0565","MEAN_MOTION":"15.06408647","PERIAPSIS":"546.055","FILE":"3521124","MEAN_MOTION_DDOT":"0.0000000000000","TIME_SYSTEM":"UTC","SITE":"AFETR","REV_AT_EPOCH":"7803","MEAN_ELEMENT_THEORY":"SGP4","CENTER_NAME":"EARTH","OBJECT_TYPE":"PAYLOAD","NORAD_CAT_ID":"47764","ECCENTRICITY":"0.00016340","APOAPSIS":"548.319","COUNTRY_CODE":"US","OBJECT_NAME":"STARLINK-2182","ARG_OF_PERICENTER":"76.7454","DECAY_DATE":null,"MEAN_MOTION_DOT":"0.00000019","MEAN_ANOMALY":"283.3717","RCS_SIZE":"LARGE","REF_FRAME":"TEME","ELEMENT_SET_NO":"999","CLASSIFICATION_TYPE":"U","OBJECT_ID":"2021-017AU","EPHEMERIS_TYPE":"0","RA_OF_ASC_NODE":"49.6501"}];
